{
    "links": {
        "self": "http://www.neowsapp.com/rest/v1/neo/3843126?api_key=iIulBulltgU6a56xZRHN4H3l9WmuAYTsLGpBGhQ2"
    },
    "id": "3843126",
    "neo_reference_id": "3843126",
    "name": "(2019 NY1)",
    "designation": "2019 NY1",
    "nasa_jpl_url": "http://ssd.jpl.nasa.gov/sbdb.cgi?sstr=3843126",
    "absolute_magnitude_h": 25.4,
    "estimated_diameter": {
        "kilometers": {
            "estimated_diameter_min": 0.022108281,
            "estimated_diameter_max": 0.0494356193
        },
        "meters": {
            "estimated_diameter_min": 22.1082810359,
            "estimated_diameter_max": 49.435619262
        },
        "miles": {
            "estimated_diameter_min": 0.0137374447,
            "estimated_diameter_max": 0.0307178602
        },
        "feet": {
            "estimated_diameter_min": 72.5337327539,
            "estimated_diameter_max": 162.1903570994
        }
    },
    "is_potentially_hazardous_asteroid": false,
    "close_approach_data": [
        {
            "close_approach_date": "2019-07-04",
            "close_approach_date_full": "2019-Jul-04 04:59",
            "epoch_date_close_approach": 1562216340000,
            "relative_velocity": {
                "kilometers_per_second": "8.4779900041",
                "kilometers_per_hour": "30520.7640148257",
                "miles_per_hour": "18964.4158402121"
            },
            "miss_distance": {
                "astronomical": "0.0284275904",
                "lunar": "11.0583326656",
                "kilometers": "4252706.973072448",
                "miles": "2642509.5782698624"
            },
            "orbiting_body": "Earth"
        }
    ],
    "orbital_data": {
        "orbit_id": "1",
        "orbit_determination_date": "2019-07-05 11:42:05",
        "first_observation_date": "2019-07-03",
        "last_observation_date": "2019-07-05",
        "data_arc_in_days": 2,
        "observations_used": 52,
        "orbit_uncertainty": "7",
        "minimum_orbit_intersection": ".0268388",
        "jupiter_tisserand_invariant": "4.049",
        "epoch_osculation": "2459000.5",
        "eccentricity": ".4271600223658858",
        "semi_major_axis": "1.726435630620039",
        "inclination": "6.620890378034125",
        "ascending_node_longitude": "110.4450169995173",
        "orbital_period": "828.5600942451007",
        "perihelion_distance": ".988971348031121",
        "perihelion_argument": "138.6942614686237",
        "aphelion_distance": "2.463899913208957",
        "perihelion_time": "2458641.108293620226",
        "mean_anomaly": "156.1516360676257",
        "mean_motion": ".4344887021477847",
        "equinox": "J2000",
        "orbit_class": {
            "orbit_class_type": "APO",
            "orbit_class_description": "Near-Earth asteroid orbits which cross the Earth’s orbit similar to that of 1862 Apollo",
            "orbit_class_range": "a (semi-major axis) > 1.0 AU; q (perihelion) < 1.017 AU"
        }
    },
    "is_sentry_object": false
}